2024-092F               
1 59778U 24092F   26068.91303411  .00025723  00000+0  79143-3 0  9992
2 59778  97.6418 198.4543 0008646 142.6506 217.5339 15.33614440100535
STARLINK-34816          
1 65467U 25195K   26068.71928103  .00014967  00000+0  51661-3 0  9991
2 65467  53.1594 258.3708 0001373  34.8226 325.2865 15.30189195 29991
